{
    "links": {
        "self": "http://www.neowsapp.com/rest/v1/neo/3763481?api_key=iIulBulltgU6a56xZRHN4H3l9WmuAYTsLGpBGhQ2"
    },
    "id": "3763481",
    "neo_reference_id": "3763481",
    "name": "(2016 VJ3)",
    "designation": "2016 VJ3",
    "nasa_jpl_url": "http://ssd.jpl.nasa.gov/sbdb.cgi?sstr=3763481",
    "absolute_magnitude_h": 24.6,
    "estimated_diameter": {
        "kilometers": {
            "estimated_diameter_min": 0.0319561887,
            "estimated_diameter_max": 0.0714562102
        },
        "meters": {
            "estimated_diameter_min": 31.9561886721,
            "estimated_diameter_max": 71.4562101727
        },
        "miles": {
            "estimated_diameter_min": 0.0198566489,
            "estimated_diameter_max": 0.0444008168
        },
        "feet": {
            "estimated_diameter_min": 104.8431420431,
            "estimated_diameter_max": 234.436392583
        }
    },
    "is_potentially_hazardous_asteroid": false,
    "close_approach_data": [
        {
            "close_approach_date": "2016-11-03",
            "close_approach_date_full": "2016-Nov-03 17:46",
            "epoch_date_close_approach": 1478195160000,
            "relative_velocity": {
                "kilometers_per_second": "27.6926173223",
                "kilometers_per_hour": "99693.4223602516",
                "miles_per_hour": "61945.6156882352"
            },
            "miss_distance": {
                "astronomical": "0.0288819247",
                "lunar": "11.2350687083",
                "kilometers": "4320674.416620389",
                "miles": "2684742.5893198082"
            },
            "orbiting_body": "Earth"
        }
    ],
    "orbital_data": {
        "orbit_id": "3",
        "orbit_determination_date": "2017-04-06 08:22:20",
        "first_observation_date": "2016-11-07",
        "last_observation_date": "2016-11-09",
        "data_arc_in_days": 2,
        "observations_used": 41,
        "orbit_uncertainty": "9",
        "minimum_orbit_intersection": ".0281468",
        "jupiter_tisserand_invariant": "3.970",
        "epoch_osculation": "2457700.5",
        "eccentricity": ".682200932838782",
        "semi_major_axis": "1.573214063676917",
        "inclination": "34.47767971494424",
        "ascending_node_longitude": "43.72628221301873",
        "orbital_period": "720.742541810125",
        "perihelion_distance": ".4999659618814333",
        "perihelion_argument": "253.6191701121336",
        "aphelion_distance": "2.646462165472401",
        "perihelion_time": "2457646.100708995061",
        "mean_anomaly": "27.17162318821088",
        "mean_motion": ".4994848772154755",
        "equinox": "J2000",
        "orbit_class": {
            "orbit_class_type": "APO",
            "orbit_class_description": "Near-Earth asteroid orbits which cross the Earth’s orbit similar to that of 1862 Apollo",
            "orbit_class_range": "a (semi-major axis) > 1.0 AU; q (perihelion) < 1.017 AU"
        }
    },
    "is_sentry_object": false
}